{"type": "FeatureCollection", "features": [ {"type": "Feature", "properties": {"norad_id": 40664, "name": "SKY MEXICO-1", "group": "intelsat", "lat": 0.030020123998065095, "lon": 125.00249007472156, "alt_km": 35795.49098272011, "timestamp": "2025-12-21T07:34:34.208031+00:00", "meta": {"OBJECT_NAME": "SKY MEXICO-1", "OBJECT_ID": "2015-026B", "EPOCH": "2025-12-20T21:24:57.489120", "MEAN_MOTION": 1.00271757, "ECCENTRICITY": 0.00023346, "INCLINATION": 0.015, "RA_OF_ASC_NODE": 346.3571, "ARG_OF_PERICENTER": 300.1926, "MEAN_ANOMALY": 45.6499, "EPHEMERIS_TYPE": 0, "CLASSIFICATION_TYPE": "U", "NORAD_CAT_ID": 40664, "ELEMENT_SET_NO": 999, "REV_AT_EPOCH": 3866, "BSTAR": 0, "MEAN_MOTION_DOT": -2.11e-06, "MEAN_MOTION_DDOT": 0}, "tle": {"line1": "1 40664U 15026B   25354.89233205 -.00000211  00000+0  00000+0 0  9998", "line2": "2 40664   0.0150 346.3571 0002334 300.1926  45.6499  1.00271757 38660"}}, "geometry": {"type": "Point", "coordinates": [125.00249007472156, 0.030020123998065095]}}, {"type": "Feature", "properties": {"norad_id": 40874, "name": "INTELSAT 34 (IS-34)", "group": "intelsat", "lat": 0.011300472112972982, "lon": 148.27055343470172, "alt_km": 35782.946510137604, "timestamp": "2025-12-21T07:34:34.208042+00:00", "meta": {"OBJECT_NAME": "INTELSAT 34 (IS-34)", "OBJECT_ID": "2015-039A", "EPOCH": "2025-12-20T18:06:09.029088", "MEAN_MOTION": 1.00271507, "ECCENTRICITY": 7.85e-05, "INCLINATION": 0.0154, "RA_OF_ASC_NODE": 334.6531, "ARG_OF_PERICENTER": 180.3511, "MEAN_ANOMALY": 150.6185, "EPHEMERIS_TYPE": 0, "CLASSIFICATION_TYPE": "U", "NORAD_CAT_ID": 40874, "ELEMENT_SET_NO": 999, "REV_AT_EPOCH": 3783, "BSTAR": 0, "MEAN_MOTION_DOT": -2.62e-06, "MEAN_MOTION_DDOT": 0}, "tle": {"line1": "1 40874U 15039A   25354.75427117 -.00000262  00000+0  00000+0 0  9993", "line2": "2 40874   0.0154 334.6531 0000785 180.3511 150.6185  1.00271507 37839"}}, "geometry": {"type": "Point", "coordinates": [148.27055343470172, 0.011300472112972982]}}, {"type": "Feature", "properties": {"norad_id": 41581, "name": "INTELSAT 31 (IS-31)", "group": "intelsat", "lat": 0.011619234490240557, "lon": 108.69993827747953, "alt_km": 35786.820342647785, "timestamp": "2025-12-21T07:34:34.208052+00:00", "meta": {"OBJECT_NAME": "INTELSAT 31 (IS-31)", "OBJECT_ID": "2016-035A", "EPOCH": "2025-12-20T14:29:23.871264", "MEAN_MOTION": 1.00271704, "ECCENTRICITY": 0.00019976, "INCLINATION": 0.0288, "RA_OF_ASC_NODE": 267.9464, "ARG_OF_PERICENTER": 295.2319, "MEAN_ANOMALY": 8.5584, "EPHEMERIS_TYPE": 0, "CLASSIFICATION_TYPE": "U", "NORAD_CAT_ID": 41581, "ELEMENT_SET_NO": 999, "REV_AT_EPOCH": 3489, "BSTAR": 0, "MEAN_MOTION_DOT": -1.27e-06, "MEAN_MOTION_DDOT": 0}, "tle": {"line1": "1 41581U 16035A   25354.60374851 -.00000127  00000+0  00000+0 0  9996", "line2": "2 41581   0.0288 267.9464 0001997 295.2319   8.5584  1.00271704 34890"}}, "geometry": {"type": "Point", "coordinates": [108.69993827747953, 0.011619234490240557]}}, {"type": "Feature", "properties": {"norad_id": 41747, "name": "INTELSAT 36 (IS-36)", "group": "intelsat", "lat": -0.038735223134252435, "lon": -87.75085745448891, "alt_km": 35783.52430514391, "timestamp": "2025-12-21T07:34:34.208063+00:00", "meta": {"OBJECT_NAME": "INTELSAT 36 (IS-36)", "OBJECT_ID": "2016-053A", "EPOCH": "2025-12-20T13:09:38.733408", "MEAN_MOTION": 1.00271779, "ECCENTRICITY": 0.00011803, "INCLINATION": 0.0114, "RA_OF_ASC_NODE": 2.7331, "ARG_OF_PERICENTER": 328.9558, "MEAN_ANOMALY": 23.5927, "EPHEMERIS_TYPE": 0, "CLASSIFICATION_TYPE": "U", "NORAD_CAT_ID": 41747, "ELEMENT_SET_NO": 999, "REV_AT_EPOCH": 3415, "BSTAR": 0, "MEAN_MOTION_DOT": -1e-08, "MEAN_MOTION_DDOT": 0}, "tle": {"line1": "1 41747U 16053A   25354.54836497 -.00000001  00000+0  00000+0 0  9993", "line2": "2 41747   0.0114   2.7331 0001180 328.9558  23.5927  1.00271779 34152"}}, "geometry": {"type": "Point", "coordinates": [-87.75085745448891, -0.038735223134252435]}}, {"type": "Feature", "properties": {"norad_id": 41945, "name": "INTELSAT 32E (IS-32E)", "group": "intelsat", "lat": 0.03466319036159182, "lon": 160.59918682843815, "alt_km": 35786.98284432277, "timestamp": "2025-12-21T07:34:34.208073+00:00", "meta": {"OBJECT_NAME": "INTELSAT 32E (IS-32E)", "OBJECT_ID": "2017-007B", "EPOCH": "2025-12-20T16:26:45.777984", "MEAN_MOTION": 1.00271211, "ECCENTRICITY": 4.749e-05, "INCLINATION": 0.029, "RA_OF_ASC_NODE": 71.8228, "ARG_OF_PERICENTER": 338.6559, "MEAN_ANOMALY": 242.5522, "EPHEMERIS_TYPE": 0, "CLASSIFICATION_TYPE": "U", "NORAD_CAT_ID": 41945, "ELEMENT_SET_NO": 999, "REV_AT_EPOCH": 3243, "BSTAR": 0, "MEAN_MOTION_DOT": -2.46e-06, "MEAN_MOTION_DDOT": 0}, "tle": {"line1": "1 41945U 17007B   25354.68525206 -.00000246  00000+0  00000+0 0  9992", "line2": "2 41945   0.0290  71.8228 0000474 338.6559 242.5522  1.00271211 32437"}}, "geometry": {"type": "Point", "coordinates": [160.59918682843815, 0.03466319036159182]}}, {"type": "Feature", "properties": {"norad_id": 42818, "name": "INTELSAT 35E (IS-35E)", "group": "intelsat", "lat": 0.018421026892029055, "lon": 169.26045670558753, "alt_km": 35788.16896272962, "timestamp": "2025-12-21T07:34:34.208083+00:00", "meta": {"OBJECT_NAME": "INTELSAT 35E (IS-35E)", "OBJECT_ID": "2017-041A", "EPOCH": "2025-12-20T21:37:33.782016", "MEAN_MOTION": 1.00270913, "ECCENTRICITY": 0.0001849, "INCLINATION": 0.0174, "RA_OF_ASC_NODE": 24.2941, "ARG_OF_PERICENTER": 248.3288, "MEAN_ANOMALY": 107.0078, "EPHEMERIS_TYPE": 0, "CLASSIFICATION_TYPE": "U", "NORAD_CAT_ID": 42818, "ELEMENT_SET_NO": 999, "REV_AT_EPOCH": 3102, "BSTAR": 0, "MEAN_MOTION_DOT": -2.15e-06, "MEAN_MOTION_DDOT": 0}, "tle": {"line1": "1 42818U 17041A   25354.90108544 -.00000215  00000+0  00000+0 0  9993", "line2": "2 42818   0.0174  24.2941 0001849 248.3288 107.0078  1.00270913 31028"}}, "geometry": {"type": "Point", "coordinates": [169.26045670558753, 0.018421026892029055]}}, {"type": "Feature", "properties": {"norad_id": 42950, "name": "INTELSAT 37E (IS-37E)", "group": "intelsat", "lat": 0.0008074494334173064, "lon": -174.2584696381885, "alt_km": 35782.4086888851, "timestamp": "2025-12-21T07:34:34.208094+00:00", "meta": {"OBJECT_NAME": "INTELSAT 37E (IS-37E)", "OBJECT_ID": "2017-059A", "EPOCH": "2025-12-20T21:42:18.326592", "MEAN_MOTION": 1.00274265, "ECCENTRICITY": 0.00028108, "INCLINATION": 0.0047, "RA_OF_ASC_NODE": 88.6458, "ARG_OF_PERICENTER": 172.4544, "MEAN_ANOMALY": 136.206, "EPHEMERIS_TYPE": 0, "CLASSIFICATION_TYPE": "U", "NORAD_CAT_ID": 42950, "ELEMENT_SET_NO": 999, "REV_AT_EPOCH": 3027, "BSTAR": 0, "MEAN_MOTION_DOT": -1.17e-06, "MEAN_MOTION_DDOT": 0}, "tle": {"line1": "1 42950U 17059A   25354.90437878 -.00000117  00000+0  00000+0 0  9995", "line2": "2 42950   0.0047  88.6458 0002810 172.4544 136.2060  1.00274265 30277"}}, "geometry": {"type": "Point", "coordinates": [-174.2584696381885, 0.0008074494334173064]}}, {"type": "Feature", "properties": {"norad_id": 43632, "name": "AZERSPACE 2 (IS-38)", "group": "intelsat", "lat": -0.02647578683778989, "lon": -111.12163682921766, "alt_km": 35781.63208715435, "timestamp": "2025-12-21T07:34:34.208104+00:00", "meta": {"OBJECT_NAME": "AZERSPACE 2 (IS-38)", "OBJECT_ID": "2018-074A", "EPOCH": "2025-12-20T17:47:21.491808", "MEAN_MOTION": 1.0027107, "ECCENTRICITY": 0.00011604, "INCLINATION": 0.0009, "RA_OF_ASC_NODE": 355.7052, "ARG_OF_PERICENTER": 274.3723, "MEAN_ANOMALY": 131.4463, "EPHEMERIS_TYPE": 0, "CLASSIFICATION_TYPE": "U", "NORAD_CAT_ID": 43632, "ELEMENT_SET_NO": 999, "REV_AT_EPOCH": 2665, "BSTAR": 0, "MEAN_MOTION_DOT": 1.6e-06, "MEAN_MOTION_DDOT": 0}, "tle": {"line1": "1 43632U 18074A   25354.74122097  .00000160  00000+0  00000+0 0  9994", "line2": "2 43632   0.0009 355.7052 0001160 274.3723 131.4463  1.00271070 26651"}}, "geometry": {"type": "Point", "coordinates": [-111.12163682921766, -0.02647578683778989]}}, {"type": "Feature", "properties": {"norad_id": 43633, "name": "HORIZONS-3E", "group": "intelsat", "lat": -9.810490272547027e-05, "lon": 12.747158685165932, "alt_km": 35784.78336422941, "timestamp": "2025-12-21T07:34:34.208115+00:00", "meta": {"OBJECT_NAME": "HORIZONS-3E", "OBJECT_ID": "2018-074B", "EPOCH": "2025-12-20T14:02:03.988032", "MEAN_MOTION": 1.00269138, "ECCENTRICITY": 7.67e-05, "INCLINATION": 0.009, "RA_OF_ASC_NODE": 233.4534, "ARG_OF_PERICENTER": 88.2799, "MEAN_ANOMALY": 147.176, "EPHEMERIS_TYPE": 0, "CLASSIFICATION_TYPE": "U", "NORAD_CAT_ID": 43633, "ELEMENT_SET_NO": 999, "REV_AT_EPOCH": 2655, "BSTAR": 0, "MEAN_MOTION_DOT": 0, "MEAN_MOTION_DDOT": 0}, "tle": {"line1": "1 43633U 18074B   25354.58476838  .00000000  00000+0  00000+0 0  9995", "line2": "2 43633   0.0090 233.4534 0000767  88.2799 147.1760  1.00269138 26551"}}, "geometry": {"type": "Point", "coordinates": [12.747158685165932, -9.810490272547027e-05]}}, {"type": "Feature", "properties": {"norad_id": 44333, "name": "AT&T T-16", "group": "intelsat", "lat": 0.03269609014079042, "lon": 102.8797661499295, "alt_km": 35783.913074416494, "timestamp": "2025-12-21T07:34:34.208125+00:00", "meta": {"OBJECT_NAME": "AT&T T-16", "OBJECT_ID": "2019-034A", "EPOCH": "2025-12-20T14:27:46.526976", "MEAN_MOTION": 1.00263761, "ECCENTRICITY": 0.0001552, "INCLINATION": 0.019, "RA_OF_ASC_NODE": 58.344, "ARG_OF_PERICENTER": 92.0528, "MEAN_ANOMALY": 55.1236, "EPHEMERIS_TYPE": 0, "CLASSIFICATION_TYPE": "U", "NORAD_CAT_ID": 44333, "ELEMENT_SET_NO": 999, "REV_AT_EPOCH": 2384, "BSTAR": 0, "MEAN_MOTION_DOT": -9.1e-07, "MEAN_MOTION_DDOT": 0}, "tle": {"line1": "1 44333U 19034A   25354.60262184 -.00000091  00000+0  00000+0 0  9991", "line2": "2 44333   0.0190  58.3440 0001552  92.0528  55.1236  1.00263761 23847"}}, "geometry": {"type": "Point", "coordinates": [102.8797661499295, 0.03269609014079042]}}]}